{
  "type": "FeatureCollection",
  "features": [
    {
      "type": "Feature",
      "properties": {
        "norad_id": 66758,
        "name": "TRANSPORTER-15 CW",
        "group": "last-30-days",
        "lat": 59.778895608847186,
        "lon": 53.46197765205772,
        "alt_km": 505.757151697263,
        "timestamp": "2025-12-20T18:51:30.446756+00:00",
        "meta_object_name": "TRANSPORTER-15 CW",
        "meta_object_id": "2025-276CW",
        "meta_epoch": "2025-12-20T05:56:11.041728",
        "meta_mean_motion": 15.18039849,
        "meta_eccentricity": 0.00012303,
        "meta_inclination": 97.4406,
        "meta_ra_of_asc_node": 65.8976,
        "meta_arg_of_pericenter": 137.0834,
        "meta_mean_anomaly": 223.0497,
        "meta_ephemeris_type": 0,
        "meta_classification_type": "U",
        "meta_norad_cat_id": 66758,
        "meta_element_set_no": 999,
        "meta_rev_at_epoch": 326,
        "meta_bstar": 0.00033106,
        "meta_mean_motion_dot": 6.673e-05,
        "meta_mean_motion_ddot": 0,
        "tle_line1": "1 66758U 25276CW  25354.24735002  .00006673  00000+0  33106-3 0  9993",
        "tle_line2": "2 66758  97.4406  65.8976 0001230 137.0834 223.0497 15.18039849  3263"
      },
      "geometry": {
        "type": "Point",
        "coordinates": [
          53.46197765205772,
          59.778895608847186
        ]
      }
    },
    {
      "type": "Feature",
      "properties": {
        "norad_id": 66759,
        "name": "TRANSPORTER-15 CX",
        "group": "last-30-days",
        "lat": 67.37962571407812,
        "lon": 48.15007132630615,
        "alt_km": 504.50605124619506,
        "timestamp": "2025-12-20T18:51:30.446766+00:00",
        "meta_object_name": "TRANSPORTER-15 CX",
        "meta_object_id": "2025-276CX",
        "meta_epoch": "2025-12-19T14:05:02.213952",
        "meta_mean_motion": 15.18161392,
        "meta_eccentricity": 0.0001493,
        "meta_inclination": 97.4394,
        "meta_ra_of_asc_node": 65.2472,
        "meta_arg_of_pericenter": 144.8645,
        "meta_mean_anomaly": 215.2688,
        "meta_ephemeris_type": 0,
        "meta_classification_type": "U",
        "meta_norad_cat_id": 66759,
        "meta_element_set_no": 999,
        "meta_rev_at_epoch": 316,
        "meta_bstar": 0.0002502,
        "meta_mean_motion_dot": 5.044e-05,
        "meta_mean_motion_ddot": 0,
        "tle_line1": "1 66759U 25276CX  25353.58683118  .00005044  00000+0  25020-3 0  9997",
        "tle_line2": "2 66759  97.4394  65.2472 0001493 144.8645 215.2688 15.18161392  3165"
      },
      "geometry": {
        "type": "Point",
        "coordinates": [
          48.15007132630615,
          67.37962571407812
        ]
      }
    },
    {
      "type": "Feature",
      "properties": {
        "norad_id": 66760,
        "name": "TRANSPORTER-15 CY",
        "group": "last-30-days",
        "lat": 69.46644312956074,
        "lon": 46.009816467634046,
        "alt_km": 503.7904008487794,
        "timestamp": "2025-12-20T18:51:30.446776+00:00",
        "meta_object_name": "TRANSPORTER-15 CY",
        "meta_object_id": "2025-276CY",
        "meta_epoch": "2025-12-20T10:38:18.216096",
        "meta_mean_motion": 15.18161231,
        "meta_eccentricity": 0.00016546,
        "meta_inclination": 97.4412,
        "meta_ra_of_asc_node": 66.096,
        "meta_arg_of_pericenter": 111.8725,
        "meta_mean_anomaly": 248.2685,
        "meta_ephemeris_type": 0,
        "meta_classification_type": "U",
        "meta_norad_cat_id": 66760,
        "meta_element_set_no": 999,
        "meta_rev_at_epoch": 329,
        "meta_bstar": 0.00033507391,
        "meta_mean_motion_dot": 6.779e-05,
        "meta_mean_motion_ddot": 0,
        "tle_line1": "1 66760U 25276CY  25354.44326639  .00006779  00000+0  33507-3 0  9992",
        "tle_line2": "2 66760  97.4412  66.0960 0001654 111.8725 248.2685 15.18161231  3290"
      },
      "geometry": {
        "type": "Point",
        "coordinates": [
          46.009816467634046,
          69.46644312956074
        ]
      }
    },
    {
      "type": "Feature",
      "properties": {
        "norad_id": 66761,
        "name": "TRANSPORTER-15 CZ",
        "group": "last-30-days",
        "lat": 79.47656678094549,
        "lon": 21.725613633662366,
        "alt_km": 502.4801763479618,
        "timestamp": "2025-12-20T18:51:30.446789+00:00",
        "meta_object_name": "TRANSPORTER-15 CZ",
        "meta_object_id": "2025-276CZ",
        "meta_epoch": "2025-12-20T02:40:49.176192",
        "meta_mean_motion": 15.1841514,
        "meta_eccentricity": 0.00014913,
        "meta_inclination": 97.4407,
        "meta_ra_of_asc_node": 65.774,
        "meta_arg_of_pericenter": 126.7583,
        "meta_mean_anomaly": 233.3788,
        "meta_ephemeris_type": 0,
        "meta_classification_type": "U",
        "meta_norad_cat_id": 66761,
        "meta_element_set_no": 999,
        "meta_rev_at_epoch": 324,
        "meta_bstar": 0.00036289085,
        "meta_mean_motion_dot": 7.402e-05,
        "meta_mean_motion_ddot": 0,
        "tle_line1": "1 66761U 25276CZ  25354.11168028  .00007402  00000+0  36289-3 0  9997",
        "tle_line2": "2 66761  97.4407  65.7740 0001491 126.7583 233.3788 15.18415140  3248"
      },
      "geometry": {
        "type": "Point",
        "coordinates": [
          21.725613633662366,
          79.47656678094549
        ]
      }
    },
    {
      "type": "Feature",
      "properties": {
        "norad_id": 66762,
        "name": "HYDROGNSS-1",
        "group": "last-30-days",
        "lat": 4.336649488711107,
        "lon": 65.8390480183924,
        "alt_km": 516.3597972333182,
        "timestamp": "2025-12-20T18:51:30.446799+00:00",
        "meta_object_name": "HYDROGNSS-1",
        "meta_object_id": "2025-276DA",
        "meta_epoch": "2025-12-20T04:35:32.950176",
        "meta_mean_motion": 15.1713775,
        "meta_eccentricity": 0.00025207,
        "meta_inclination": 97.4418,
        "meta_ra_of_asc_node": 65.8233,
        "meta_arg_of_pericenter": 306.2069,
        "meta_mean_anomaly": 53.8931,
        "meta_ephemeris_type": 0,
        "meta_classification_type": "U",
        "meta_norad_cat_id": 66762,
        "meta_element_set_no": 999,
        "meta_rev_at_epoch": 325,
        "meta_bstar": -0.0031238765,
        "meta_mean_motion_dot": -0.0006147,
        "meta_mean_motion_ddot": 0,
        "tle_line1": "1 66762U 25276DA  25354.19135359 -.00061470  00000+0 -31239-2 0  9993",
        "tle_line2": "2 66762  97.4418  65.8233 0002520 306.2069  53.8931 15.17137750  3250"
      },
      "geometry": {
        "type": "Point",
        "coordinates": [
          65.8390480183924,
          4.336649488711107
        ]
      }
    },
    {
      "type": "Feature",
      "properties": {
        "norad_id": 66763,
        "name": "HYDROGNSS-2",
        "group": "last-30-days",
        "lat": 14.281210164114018,
        "lon": 64.50823400573145,
        "alt_km": 515.8675490920978,
        "timestamp": "2025-12-20T18:51:30.446811+00:00",
        "meta_object_name": "HYDROGNSS-2",
        "meta_object_id": "2025-276DB",
        "meta_epoch": "2025-12-20T04:32:57.777504",
        "meta_mean_motion": 15.17256655,
        "meta_eccentricity": 0.00010994,
        "meta_inclination": 97.443,
        "meta_ra_of_asc_node": 65.8296,
        "meta_arg_of_pericenter": 138.4182,
        "meta_mean_anomaly": 221.7136,
        "meta_ephemeris_type": 0,
        "meta_classification_type": "U",
        "meta_norad_cat_id": 66763,
        "meta_element_set_no": 999,
        "meta_rev_at_epoch": 325,
        "meta_bstar": -0.0041962283,
        "meta_mean_motion_dot": -0.00082583,
        "meta_mean_motion_ddot": 0,
        "tle_line1": "1 66763U 25276DB  25354.18955761 -.00082583  00000+0 -41962-2 0  9992",
        "tle_line2": "2 66763  97.4430  65.8296 0001099 138.4182 221.7136 15.17256655  3254"
      },
      "geometry": {
        "type": "Point",
        "coordinates": [
          64.50823400573145,
          14.281210164114018
        ]
      }
    },
    {
      "type": "Feature",
      "properties": {
        "norad_id": 66764,
        "name": "TRANSPORTER-15 DC",
        "group": "last-30-days",
        "lat": 36.615198890423535,
        "lon": 60.84488119611058,
        "alt_km": 511.5422844891609,
        "timestamp": "2025-12-20T18:51:30.446820+00:00",
        "meta_object_name": "TRANSPORTER-15 DC",
        "meta_object_id": "2025-276DC",
        "meta_epoch": "2025-12-20T12:21:59.442912",
        "meta_mean_motion": 15.1767582,
        "meta_eccentricity": 0.00017855,
        "meta_inclination": 97.4419,
        "meta_ra_of_asc_node": 66.1529,
        "meta_arg_of_pericenter": 204.2227,
        "meta_mean_anomaly": 155.8923,
        "meta_ephemeris_type": 0,
        "meta_classification_type": "U",
        "meta_norad_cat_id": 66764,
        "meta_element_set_no": 999,
        "meta_rev_at_epoch": 330,
        "meta_bstar": 0.00028370315,
        "meta_mean_motion_dot": 5.649e-05,
        "meta_mean_motion_ddot": 0,
        "tle_line1": "1 66764U 25276DC  25354.51527133  .00005649  00000+0  28370-3 0  9993",
        "tle_line2": "2 66764  97.4419  66.1529 0001785 204.2227 155.8923 15.17675820  3305"
      },
      "geometry": {
        "type": "Point",
        "coordinates": [
          60.84488119611058,
          36.615198890423535
        ]
      }
    }
  ]
}